[{"OBJECT_NAME":"STARLINK-5562","OBJECT_ID":"2023-058V","EPOCH":"2026-03-09T22:09:34.119648","MEAN_MOTION":15.01261223,"ECCENTRICITY":0.00016906,"INCLINATION":97.604,"RA_OF_ASC_NODE":70.411,"ARG_OF_PERICENTER":53.5061,"MEAN_ANOMALY":306.6319,"EPHEMERIS_TYPE":0,"CLASSIFICATION_TYPE":"U","NORAD_CAT_ID":56336,"ELEMENT_SET_NO":999,"REV_AT_EPOCH":15816,"BSTAR":-2.509918e-6,"MEAN_MOTION_DOT":-9.1e-7,"MEAN_MOTION_DDOT":0},{"OBJECT_NAME":"COSMOS 2228","OBJECT_ID":"1992-094A","EPOCH":"2026-03-09T22:06:22.986432","MEAN_MOTION":14.97191104,"ECCENTRICITY":0.00167811,"INCLINATION":82.5157,"RA_OF_ASC_NODE":237.0886,"ARG_OF_PERICENTER":303.9293,"MEAN_ANOMALY":56.0333,"EPHEMERIS_TYPE":0,"CLASSIFICATION_TYPE":"U","NORAD_CAT_ID":22286,"ELEMENT_SET_NO":999,"REV_AT_EPOCH":77609,"BSTAR":0.0002463535,"MEAN_MOTION_DOT":2.881e-5,"MEAN_MOTION_DDOT":0}]
